[Satellite]
VERSION=1.1
NAME=LINK
NICKNAME=LINK
TLE1=1 42714U 98067LV  18021.15802768  .00033958  00000-0  31898-3 0  9997
TLE2=2 42714  51.6352  21.3161 0002825  12.8980 347.2088 15.66818464 38654
